98P/Takamizawa,e,10.5860,114.5962,157.7106,3.787696,0.1337031,0.56346779,180.6318,09/16.0/2024,2000,g  9.0,8.0
# From MPEC 2024-R10
99P/Kowal,e,4.3391,28.0847,174.6068,6.095586,0.0654909,0.22855853,58.3157,09/16.0/2024,2000,g  4.5,6.0
# From MPEC 2023-OA6
100P/Hartley,e,25.5672,37.6857,181.9589,3.430561,0.1551159,0.41147803,119.0393,09/16.0/2024,2000,g  9.0,8.0
# From MPEC 2024-R10
101P/Chernykh,e,5.0488,116.1444,277.9278,5.815028,0.0702872,0.59605428,120.0193,09/16.0/2024,2000,g 10.0,4.8
# From MPC105241
101P-B/Chernykh,e,5.0500,278.5273,115.5477,5.830543,0.0700068,0.59626500,118.2964,09/16.0/2024,2000,g  9.0,4.0
# From MPEC 2022-C56
102P/Shoemaker,e,25.8639,339.4067,20.6746,3.819103,0.1320572,0.45638536,176.0051,09/16.0/2024,2000,g  6.5,8.0
# From MPEC 2024-NE4
103P/Hartley,e,13.6104,219.7503,181.3111,3.474805,0.1521628,0.69368421,51.6596,09/16.0/2024,2000,g  8.5,8.0
# From MPEC 2023-G31
104P/Kowal,e,5.7025,207.2024,227.2710,3.208703,0.1714786,0.66592193,167.6873,09/16.0/2024,2000,g 16.0,4.0
# From MPEC 2024-F34
105P/SingerBrewster,e,9.1678,192.3984,46.3425,3.472280,0.1523288,0.40901654,340.3819,09/16.0/2024,2000,g 11.5,6.0
# From MPEC 2024-R10
106P/Schuster,e,19.5393,48.8634,353.7832,3.767559,0.1347764,0.59380420,151.4715,09/16.0/2024,2000,g 14.0,4.8
# From MPEC 2015-M77
107P/Wilson-Harrington,e,2.7986,266.7368,95.5141,2.625554,0.2316716,0.63123559,174.5644,09/16.0/2024,2000,g  9.0,4.0
# From MPEC 2022-P82
108P/Ciffreo,e,11.4355,50.2989,354.5159,3.743043,0.1361027,0.55596461,149.9222,09/16.0/2024,2000,g  8.0,12.0
# From  105, 420
109P/Swift-Tuttle,e,113.3141,139.5562,153.2443,26.21176,0.0073445,0.96268065,85.1421,09/16.0/2024,2000,g  4.0,6.0
# From MPEC 2023-KD6
110P/Hartley,e,11.7093,287.4856,167.5219,3.603824,0.1440651,0.31911840,153.1399,09/16.0/2024,2000,g  1.0,12.0
# From MPC 75718
111P/Helin-Roman-Crockett,e,4.2261,89.8108,1.2956,4.152516,0.1164762,0.10717608,138.0679,09/16.0/2024,2000,g  5.0,8.0
# From MPEC 2021-S45
112P/Urata-Niijima,e,24.2068,31.8280,21.5191,3.523180,0.1490396,0.59087705,250.3521,09/16.0/2024,2000,g 14.0,6.0
# From MPEC 2024-JU4
113P/Spitaler,e,5.2875,306.6418,115.6774,3.695017,0.1387648,0.41988921,116.1762,09/16.0/2024,2000,g 13.5,4.0
# From MPEC 2023-A50
114P/Wiseman-Skiff,e,18.3032,271.0258,172.7807,3.541051,0.1479128,0.55605540,252.1831,09/16.0/2024,2000,g 11.5,6.0
# From MPEC 2023-J29
115P/Maury,e,11.6772,176.0118,120.9423,4.271909,0.1116275,0.51752747,168.7137,09/16.0/2024,2000,g 10.5,6.0
# From MPEC 2024-RQ6
116P/Wild,e,3.6038,20.9658,173.1848,3.487033,0.1513631,0.37039404,119.9383,09/16.0/2024,2000,g  2.5,10.0
# From MPEC 2024-R10
117P/Helin-Roman-Alu,e,8.7023,58.8214,224.0354,4.103135,0.1185852,0.25538159,94.5089,09/16.0/2024,2000,g  2.5,8.0
# From MPEC 2024-MB8
118P/Shoemaker-Levy,e,10.0904,142.0728,314.9081,3.348559,0.1608485,0.45377726,106.3933,09/16.0/2024,2000,g 12.0,4.0
# From MPEC 2024-R10
119P/Parker-Hartley,e,7.3925,104.5503,322.2128,3.808000,0.1326352,0.38831309,101.5485,09/16.0/2024,2000,g  3.5,8.0
# From MPEC 2022-CN4
120P/Mueller,e,8.4847,358.7187,36.7451,3.968716,0.1246606,0.37453610,152.9822,09/16.0/2024,2000,g 12.0,4.0
# From MPEC 2024-JU4
121P/Shoemaker-Holt,e,20.1622,94.1084,11.8214,4.587029,0.1003245,0.18661511,44.5640,09/16.0/2024,2000,g  6.5,8.0
# From MPC 75718
122P/de Vico,e,86.0108,79.7388,12.9959,17.63012,0.0133144,0.96251741,140.9410,09/16.0/2024,2000,g  7.5,5.2
# From MPEC 2021-F20
123P/West-Hartley,e,15.2806,45.9002,103.9963,3.882190,0.1288513,0.44436981,265.1083,09/16.0/2024,2000,g 12.2,4.0
# From MPEC 2024-RQ6
124P/Mrkos,e,31.4244,0.0366,185.1497,3.374770,0.1589783,0.48653958,257.3427,09/16.0/2024,2000,g 13.5,2.8
# From MPEC 2024-RQ6
125P/Spacewatch,e,9.9852,153.1485,87.1319,3.128697,0.1780979,0.51205316,34.3234,09/16.0/2024,2000,g 13.0,6.0
# From MPEC 2024-JU4
126P/IRAS,e,45.8713,357.8575,356.5734,5.631030,0.0737602,0.69626062,32.3642,09/16.0/2024,2000,g  6.0,8.0
# From MPEC 2024-R10
127P/Holt-Olmstead,e,14.2992,13.6123,6.3240,3.453410,0.1535790,0.35910915,117.8978,09/16.0/2024,2000,g 11.0,6.0
# From MPC 89014
128P/Shoemaker-Holt,e,4.3704,214.3334,210.4112,4.484262,0.1037929,0.32243064,290.6169,09/16.0/2024,2000,g  8.5,4.0
# From MPEC 2024-R10
129P/Shoemaker-Levy,e,3.4424,184.8548,307.6658,4.292663,0.1108189,0.08576052,72.4946,09/16.0/2024,2000,g 11.0,4.0
# From MPEC 2024-RQ6
130P/McNaught-Hughes,e,6.0636,70.1783,246.1413,3.381510,0.1585032,0.46087230,24.4236,09/16.0/2024,2000,g 10.0,6.0
# From MPEC 2024-R10
131P/Mueller,e,7.3618,214.1457,179.1890,3.676244,0.1398291,0.34489499,287.6442,09/16.0/2024,2000,g 11.0,4.0
# From MPEC 2024-BE0
132P/Helin-Roman-Alu,e,5.3800,173.9907,216.4781,3.891274,0.1284004,0.56439971,133.2538,09/16.0/2024,2000,g 11.0,6.0
# From MPC 94676
133P/Elst-Pizarro,e,1.3898,160.1001,131.9075,3.163823,0.1751402,0.15586162,22.5441,09/16.0/2024,2000,g 15.4,2.0
# From MPC 89012
134P/Kowal-Vavrova,e,4.3343,202.0057,18.7235,6.269447,0.0627856,0.58526523,238.0440,09/16.0/2024,2000,g 11.5,4.0
# From MPEC 2024-C04
135P/Shoemaker-Levy,e,6.0638,213.0193,22.4091,3.801006,0.1330014,0.29390296,118.7694,09/16.0/2024,2000,g  7.0,8.0
# From MPEC 2024-RQ6
136P/Mueller,e,9.4273,137.4216,225.2673,4.185770,0.1150909,0.29319485,347.4287,09/16.0/2024,2000,g 11.0,4.0
# From MPEC 2023-J29
137P/Shoemaker-Levy,e,4.8606,232.9239,141.2258,4.522819,0.1024685,0.57335983,215.3439,09/16.0/2024,2000,g 11.0,4.0
# From MPEC 2016-U66
138P/Shoemaker-Levy,e,10.0978,309.2786,95.6573,3.618262,0.1432036,0.53162879,280.6330,09/16.0/2024,2000,g 15.0,6.0
# From MPEC 2020-HN5
139P/Vaisala-Oterma,e,2.3375,242.1832,165.8990,4.515117,0.1027308,0.24837907,253.2345,09/16.0/2024,2000,g  9.5,4.0
# From MPEC 2015-E14
140P/Bowell-Skiff,e,3.7390,343.3735,172.2289,6.408860,0.0607481,0.69576596,203.4580,09/16.0/2024,2000,g 11.5,6.0
# From MPEC 2024-R10
141P/Machholz,e,13.9633,241.7765,153.6416,3.057327,0.1843704,0.73601153,252.3509,09/16.0/2024,2000,g 12.0,12.0
# From MPEC 2015-KD9
141P-A/Machholz,e,13.9420,153.5302,241.9008,3.057526,0.1843524,0.73602789,252.2937,09/16.0/2024,2000,g 12.0,12.0
# From MPC 24216
141P-B/Machholz,e,13.9859,153.6059,241.7900,3.055907,0.1844989,0.73578669,253.6802,09/16.0/2024,2000,g  9.0,4.0
# From MPC 37026
141P-D/Machholz,e,13.8340,153.2569,242.1487,3.066005,0.1835882,0.73697958,248.1068,09/16.0/2024,2000,g  9.0,4.0
# From MPEC 2015-R12
141P-E/Machholz,e,12.8152,246.1856,149.2667,3.012914,0.1884620,0.75023267,359.9529,09/19.0/1994,2000,g  9.0,4.0
# From MPEC 2015-R12
141P-F/Machholz,e,12.7898,246.1881,149.2374,3.010224,0.1887147,0.75000946,359.9630,09/19.0/1994,2000,g  9.0,4.0
# From MPEC 2015-R12
141P-G/Machholz,e,12.8259,246.3146,149.0784,3.005818,0.1891298,0.74964304,359.9802,09/19.0/1994,2000,g  9.0,4.0
# From MPC 95735
141P-H/Machholz,e,12.8431,246.0900,149.4500,3.008012,0.1889230,0.74682218,359.9270,08/24.0/2015,2000,g 18.5,4.0
# From MPEC 2022-SU8
141P-I/Machholz,e,13.9420,153.4846,241.9109,3.048001,0.1852173,0.73525411,253.5897,09/16.0/2024,2000,g 17.5,4.0
# From MPEC 2024-C04
142P/Ge-Wang,e,12.2479,175.9507,174.0770,5.002944,0.0880776,0.49634794,107.7107,09/16.0/2024,2000,g  8.5,6.0
# From MPEC 2023-XP6
143P/Kowal-Mrkos,e,5.7996,243.3310,312.5469,4.524084,0.1024255,0.42080768,274.9047,09/16.0/2024,2000,g 13.5,2.0
# From MPEC 2024-M41
144P/Kushida,e,3.9319,242.9244,216.3331,3.831979,0.1313921,0.63492116,30.7741,09/16.0/2024,2000,g  8.5,8.0
# From MPC108598
145P/Shoemaker-Levy,e,11.2768,26.8065,10.3412,4.132260,0.1173337,0.54259173,301.0015,09/16.0/2024,2000,g 13.5,4.0
# From MPEC 2024-RQ6
146P/Shoemaker-LINEAR,e,23.1229,53.3750,317.0785,4.027124,0.1219583,0.64749965,5.0684,09/16.0/2024,2000,g 15.0,4.0
# From MPC 75720
147P/Kushida-Muramatsu,e,2.2914,92.1163,348.1012,4.009367,0.1227695,0.21216609,34.8641,09/16.0/2024,2000,g 14.0,4.0
# From MPEC 2024-JU4
148P/Anderson-LINEAR,e,3.6589,89.1955,8.0619,3.619930,0.1431047,0.55032186,118.0611,09/16.0/2024,2000,g 16.0,2.0
# From MPEC 2023-J29
149P/Mueller,e,34.2333,143.8106,30.3403,4.126304,0.1175878,0.32433537,263.3229,09/16.0/2024,2000,g  8.0,8.0
# From MPEC 2024-NE4
150P/LONEOS,e,18.5477,272.0567,246.1192,3.871006,0.1294101,0.54906122,24.2677,09/16.0/2024,2000,g 13.5,4.0
# From MPEC 2022-K19
151P/Helin,e,4.7267,143.1479,216.1491,5.764790,0.0712080,0.57302216,232.1040,09/16.0/2024,2000,g 10.0,6.0
# From MPEC 2024-PC5
152P/Helin-Lawrence,e,9.8789,91.7829,164.4314,4.484638,0.1037798,0.30758288,101.2410,09/16.0/2024,2000,g 11.5,4.0
# From MPC 46101
153P/Ikeya-Zhang,e,28.4502,93.7556,34.2994,50.38642,0.0027557,0.99005291,0.0000,03/08.0048/2002,2000,g  9.0,4.0
# From MPEC 2024-RQ6
154P/Brewington,e,17.6338,343.0092,47.9449,4.798725,0.0937595,0.67639737,8.8827,09/16.0/2024,2000,g  2.5,12.0
# From MPEC 2022-YN2
155P/Shoemaker,e,6.4093,97.1575,14.5204,6.571127,0.0585119,0.72746765,103.3003,09/16.0/2024,2000,g 10.0,4.8
# From MPEC 2023-J29
156P/Russell-LINEAR,e,17.2669,35.3409,0.5143,3.462558,0.1529708,0.61506205,213.7287,09/16.0/2024,2000,g 15.5,2.0
# From MPEC 2024-D33
157P/Tritton,e,12.4222,287.5085,155.1441,3.547360,0.1475184,0.55685021,108.7186,09/16.0/2024,2000,g 10.0,4.0
# From MPEC 2022-VC5
157P-B/Tritton,e,12.4246,153.9035,287.1667,3.102504,0.1803580,0.49992391,133.2438,09/16.0/2024,2000,g 15.7,4.0
# From MPEC 2024-Q20
158P/Kowal-LINEAR,e,7.3486,125.6124,221.3038,5.609328,0.0741887,0.11793153,60.1035,09/16.0/2024,2000,g  9.0,4.0
# From MPEC 2024-DC6
159P/LONEOS,e,23.4889,54.9391,4.6807,5.853934,0.0695877,0.38277172,160.4234,09/16.0/2024,2000,g 10.0,4.0
# From MPEC 2022-K19
160P/LINEAR,e,15.5997,333.3644,12.7902,3.778707,0.1341804,0.52530809,234.8079,09/16.0/2024,2000,g 15.5,2.0
# From MPC 75721
161P/Hartley-IRAS,e,95.8192,1.5421,47.0691,7.713131,0.0460106,0.83571922,323.0501,09/16.0/2024,2000,g  8.5,6.0
# From MPEC 2024-LE0
162P/SidingSpring,e,27.5596,30.8852,357.2250,3.092072,0.1812716,0.58305950,249.6560,09/16.0/2024,2000,g 12.0,4.0
# From MPEC 2021-S45
163P/NEAT,e,12.7206,102.0713,349.5947,3.762316,0.1350583,0.45336072,252.1041,09/16.0/2024,2000,g 14.5,4.0
# From MPEC 2024-RQ6
